ONEWEB-0570             
1 55149U 23004K   23312.25002315  .00000015  00000+0  00000+0 0  9996
2 55149  87.6582 165.0869 0001375  36.9576 302.4752 13.57050082 44180
ONEWEB-0571             
1 55150U 23004L   23312.25002315  .00000015  00000+0  00000+0 0  9998
2 55150  87.6557 165.0957 0000377  25.6664 325.1872 13.57484106 44202
ONEWEB-0572             
1 55151U 23004M   23311.59565800  .00000070  00000+0  14693-3 0  9996
2 55151  87.9248 195.2050 0001821  90.1383 269.9957 13.17650322 42031
ONEWEB-0573             
1 55152U 23004N   23312.25002315  .00000015  00000+0  00000+0 0  9990
2 55152  87.6629 165.1270 0001765 318.8401 322.9177 13.56872446 44199
ONEWEB-0588             
1 55153U 23004P   23312.25002315  .00000015  00000+0  00000+0 0  9991
2 55153  87.6501 165.0870 0003148 292.6987 269.2639 13.57936840 44195
ONEWEB-0598             
1 55154U 23004Q   23312.12818876 -.00001955  00000+0 -55527-2 0  9998
2 55154  87.8967 210.2587 0001459  89.8869 270.2426 13.11416146 41128
ONEWEB-0599             
1 55155U 23004R   23311.70955739  .00000080  00000+0  17238-3 0  9996
2 55155  87.9251 195.1569 0001581  71.7491 288.3812 13.17645040 42059
ONEWEB-0614             
1 55156U 23004S   23312.12332021 -.00000282  00000+0 -83088-3 0  9999
2 55156  87.9023 210.2463 0002132  77.0957 283.0409 13.11418512 41079
